<?xml version="1.0" encoding="UTF-8"?>
<gpx version="1.1" creator="WindRiderGPX-sample" xmlns="http://www.topografix.com/GPX/1/1">
  <trk><name>Exemple WindRider</name><trkseg>
    <trkpt lat="48.856600" lon="2.352200"><ele>60</ele></trkpt>
    <trkpt lat="48.858807" lon="2.353200"><ele>60</ele></trkpt>
    <trkpt lat="48.861005" lon="2.354200"><ele>60</ele></trkpt>
    <trkpt lat="48.863184" lon="2.355200"><ele>60</ele></trkpt>
    <trkpt lat="48.865334" lon="2.356200"><ele>60</ele></trkpt>
    <trkpt lat="48.867448" lon="2.357200"><ele>60</ele></trkpt>
    <trkpt lat="48.869514" lon="2.358200"><ele>60</ele></trkpt>
    <trkpt lat="48.871526" lon="2.359200"><ele>60</ele></trkpt>
    <trkpt lat="48.873474" lon="2.360200"><ele>60</ele></trkpt>
    <trkpt lat="48.875350" lon="2.361200"><ele>60</ele></trkpt>
    <trkpt lat="48.877146" lon="2.362200"><ele>60</ele></trkpt>
    <trkpt lat="48.878855" lon="2.363200"><ele>60</ele></trkpt>
    <trkpt lat="48.880469" lon="2.364200"><ele>60</ele></trkpt>
    <trkpt lat="48.881982" lon="2.365200"><ele>60</ele></trkpt>
    <trkpt lat="48.883387" lon="2.366200"><ele>60</ele></trkpt>
    <trkpt lat="48.884679" lon="2.367200"><ele>60</ele></trkpt>
    <trkpt lat="48.885853" lon="2.368200"><ele>60</ele></trkpt>
    <trkpt lat="48.886903" lon="2.369200"><ele>60</ele></trkpt>
    <trkpt lat="48.887826" lon="2.370200"><ele>60</ele></trkpt>
    <trkpt lat="48.888619" lon="2.371200"><ele>60</ele></trkpt>
    <trkpt lat="48.889278" lon="2.372200"><ele>60</ele></trkpt>
    <trkpt lat="48.889801" lon="2.373200"><ele>60</ele></trkpt>
    <trkpt lat="48.890186" lon="2.374200"><ele>60</ele></trkpt>
    <trkpt lat="48.890433" lon="2.375200"><ele>60</ele></trkpt>
    <trkpt lat="48.890541" lon="2.376200"><ele>60</ele></trkpt>
    <trkpt lat="48.890510" lon="2.377200"><ele>60</ele></trkpt>
    <trkpt lat="48.890341" lon="2.378200"><ele>60</ele></trkpt>
    <trkpt lat="48.890037" lon="2.379200"><ele>60</ele></trkpt>
    <trkpt lat="48.889598" lon="2.380200"><ele>60</ele></trkpt>
    <trkpt lat="48.889028" lon="2.381200"><ele>60</ele></trkpt>
    <trkpt lat="48.888330" lon="2.382200"><ele>60</ele></trkpt>
    <trkpt lat="48.887509" lon="2.383200"><ele>60</ele></trkpt>
    <trkpt lat="48.886568" lon="2.384200"><ele>60</ele></trkpt>
    <trkpt lat="48.885513" lon="2.385200"><ele>60</ele></trkpt>
    <trkpt lat="48.884350" lon="2.386200"><ele>60</ele></trkpt>
    <trkpt lat="48.883084" lon="2.387200"><ele>60</ele></trkpt>
    <trkpt lat="48.881723" lon="2.388200"><ele>60</ele></trkpt>
    <trkpt lat="48.880273" lon="2.389200"><ele>60</ele></trkpt>
    <trkpt lat="48.878742" lon="2.390200"><ele>60</ele></trkpt>
    <trkpt lat="48.877138" lon="2.391200"><ele>60</ele></trkpt>
    <trkpt lat="48.875469" lon="2.392200"><ele>60</ele></trkpt>
    <trkpt lat="48.873743" lon="2.393200"><ele>60</ele></trkpt>
    <trkpt lat="48.871970" lon="2.394200"><ele>60</ele></trkpt>
    <trkpt lat="48.870158" lon="2.395200"><ele>60</ele></trkpt>
    <trkpt lat="48.868316" lon="2.396200"><ele>60</ele></trkpt>
    <trkpt lat="48.866454" lon="2.397200"><ele>60</ele></trkpt>
    <trkpt lat="48.864581" lon="2.398200"><ele>60</ele></trkpt>
    <trkpt lat="48.862706" lon="2.399200"><ele>60</ele></trkpt>
    <trkpt lat="48.860840" lon="2.400200"><ele>60</ele></trkpt>
    <trkpt lat="48.858991" lon="2.401200"><ele>60</ele></trkpt>
    <trkpt lat="48.857169" lon="2.402200"><ele>60</ele></trkpt>
    <trkpt lat="48.855382" lon="2.403200"><ele>60</ele></trkpt>
    <trkpt lat="48.853641" lon="2.404200"><ele>60</ele></trkpt>
    <trkpt lat="48.851954" lon="2.405200"><ele>60</ele></trkpt>
    <trkpt lat="48.850329" lon="2.406200"><ele>60</ele></trkpt>
    <trkpt lat="48.848774" lon="2.407200"><ele>60</ele></trkpt>
    <trkpt lat="48.847299" lon="2.408200"><ele>60</ele></trkpt>
    <trkpt lat="48.845910" lon="2.409200"><ele>60</ele></trkpt>
    <trkpt lat="48.844614" lon="2.410200"><ele>60</ele></trkpt>
    <trkpt lat="48.843418" lon="2.411200"><ele>60</ele></trkpt>
    <trkpt lat="48.842329" lon="2.412200"><ele>60</ele></trkpt>
  </trkseg></trk>
</gpx>
